[{"OBJECT_NAME":"BEIDOU-2 IGSO-6","OBJECT_ID":"2016-021A","EPOCH":"2026-03-04T20:48:04.608000","MEAN_MOTION":1.00278464,"ECCENTRICITY":0.00598073,"INCLINATION":60.0872,"RA_OF_ASC_NODE":39.0732,"ARG_OF_PERICENTER":233.4204,"MEAN_ANOMALY":297.8613,"EPHEMERIS_TYPE":0,"CLASSIFICATION_TYPE":"U","NORAD_CAT_ID":41434,"ELEMENT_SET_NO":999,"REV_AT_EPOCH":3643,"BSTAR":0,"MEAN_MOTION_DOT":-1.5e-6,"MEAN_MOTION_DDOT":0},{"OBJECT_NAME":"IRNSS-1G","OBJECT_ID":"2016-027A","EPOCH":"2026-03-04T21:49:38.736768","MEAN_MOTION":1.00268466,"ECCENTRICITY":0.00052962,"INCLINATION":4.9364,"RA_OF_ASC_NODE":100.0005,"ARG_OF_PERICENTER":314.0414,"MEAN_ANOMALY":205.5507,"EPHEMERIS_TYPE":0,"CLASSIFICATION_TYPE":"U","NORAD_CAT_ID":41469,"ELEMENT_SET_NO":999,"REV_AT_EPOCH":3613,"BSTAR":0,"MEAN_MOTION_DOT":-3.43e-6,"MEAN_MOTION_DDOT":0},{"OBJECT_NAME":"JCSAT-2B","OBJECT_ID":"2016-028A","EPOCH":"2026-03-05T04:47:38.741280","MEAN_MOTION":1.00272417,"ECCENTRICITY":0.00011122,"INCLINATION":0.0109,"RA_OF_ASC_NODE":152.8168,"ARG_OF_PERICENTER":196.1027,"MEAN_ANOMALY":39.912,"EPHEMERIS_TYPE":0,"CLASSIFICATION_TYPE":"U","NORAD_CAT_ID":41471,"ELEMENT_SET_NO":999,"REV_AT_EPOCH":3608,"BSTAR":0,"MEAN_MOTION_DOT":-1.74e-6,"MEAN_MOTION_DDOT":0},{"OBJECT_NAME":"THAICOM 8","OBJECT_ID":"2016-031A","EPOCH":"2026-03-05T04:21:38.795328","MEAN_MOTION":1.00272516,"ECCENTRICITY":0.00040209,"INCLINATION":0.0703,"RA_OF_ASC_NODE":48.4786,"ARG_OF_PERICENTER":304.3008,"MEAN_ANOMALY":314.0889,"EPHEMERIS_TYPE":0,"CLASSIFICATION_TYPE":"U","NORAD_CAT_ID":41552,"ELEMENT_SET_NO":999,"REV_AT_EPOCH":3567,"BSTAR":0,"MEAN_MOTION_DOT":-1.3e-6,"MEAN_MOTION_DDOT":0},{"OBJECT_NAME":"INTELSAT 31 (IS-31)","OBJECT_ID":"2016-035A","EPOCH":"2026-03-05T04:59:17.118528","MEAN_MOTION":1.00271071,"ECCENTRICITY":0.00016865,"INCLINATION":0.0362,"RA_OF_ASC_NODE":247.2387,"ARG_OF_PERICENTER":348.1997,"MEAN_ANOMALY":267.2701,"EPHEMERIS_TYPE":0,"CLASSIFICATION_TYPE":"U","NORAD_CAT_ID":41581,"ELEMENT_SET_NO":999,"REV_AT_EPOCH":3564,"BSTAR":0,"MEAN_MOTION_DOT":-1.59e-6,"MEAN_MOTION_DDOT":0},{"OBJECT_NAME":"BEIDOU-2 G7","OBJECT_ID":"2016-037A","EPOCH":"2026-03-04T23:34:52.308768","MEAN_MOTION":1.00267194,"ECCENTRICITY":0.0007634,"INCLINATION":1.4631,"RA_OF_ASC_NODE":68.2136,"ARG_OF_PERICENTER":342.0505,"MEAN_ANOMALY":216.6686,"EPHEMERIS_TYPE":0,"CLASSIFICATION_TYPE":"U","NORAD_CAT_ID":41586,"ELEMENT_SET_NO":999,"REV_AT_EPOCH":584,"BSTAR":0,"MEAN_MOTION_DOT":-3.61e-6,"MEAN_MOTION_DDOT":0},{"OBJECT_NAME":"ABS-2A (MONGOLSAT-1)","OBJECT_ID":"2016-038A","EPOCH":"2026-03-05T04:21:38.795328","MEAN_MOTION":1.00270873,"ECCENTRICITY":0.00018815,"INCLINATION":0.0103,"RA_OF_ASC_NODE":137.524,"ARG_OF_PERICENTER":157.4283,"MEAN_ANOMALY":8.0859,"EPHEMERIS_TYPE":0,"CLASSIFICATION_TYPE":"U","NORAD_CAT_ID":41588,"ELEMENT_SET_NO":999,"REV_AT_EPOCH":3566,"BSTAR":0,"MEAN_MOTION_DOT":-9.2e-7,"MEAN_MOTION_DDOT":0},{"OBJECT_NAME":"EUTELSAT 117 WEST B","OBJECT_ID":"2016-038B","EPOCH":"2026-03-04T08:41:38.793120","MEAN_MOTION":1.00271881,"ECCENTRICITY":2.105e-5,"INCLINATION":0.0384,"RA_OF_ASC_NODE":342.0206,"ARG_OF_PERICENTER":243.213,"MEAN_ANOMALY":310.292,"EPHEMERIS_TYPE":0,"CLASSIFICATION_TYPE":"U","NORAD_CAT_ID":41589,"ELEMENT_SET_NO":999,"REV_AT_EPOCH":3561,"BSTAR":0,"MEAN_MOTION_DOT":-2.3e-7,"MEAN_MOTION_DDOT":0},{"OBJECT_NAME":"BRISAT","OBJECT_ID":"2016-039A","EPOCH":"2026-03-04T10:17:38.615424","MEAN_MOTION":1.00268538,"ECCENTRICITY":0.00021858,"INCLINATION":0.0208,"RA_OF_ASC_NODE":150.6767,"ARG_OF_PERICENTER":195.3165,"MEAN_ANOMALY":121.0961,"EPHEMERIS_TYPE":0,"CLASSIFICATION_TYPE":"U","NORAD_CAT_ID":41591,"ELEMENT_SET_NO":999,"REV_AT_EPOCH":3556,"BSTAR":0,"MEAN_MOTION_DOT":0,"MEAN_MOTION_DDOT":0},{"OBJECT_NAME":"ECHOSTAR 18","OBJECT_ID":"2016-039B","EPOCH":"2026-03-04T03:36:38.720160","MEAN_MOTION":1.00271454,"ECCENTRICITY":0.00016331,"INCLINATION":0.0179,"RA_OF_ASC_NODE":126.5261,"ARG_OF_PERICENTER":216.672,"MEAN_ANOMALY":171.4854,"EPHEMERIS_TYPE":0,"CLASSIFICATION_TYPE":"U","NORAD_CAT_ID":41592,"ELEMENT_SET_NO":999,"REV_AT_EPOCH":3557,"BSTAR":0,"MEAN_MOTION_DOT":-2.94e-6,"MEAN_MOTION_DDOT":0},{"OBJECT_NAME":"MUOS-5","OBJECT_ID":"2016-041A","EPOCH":"2026-03-05T04:55:47.454240","MEAN_MOTION":1.00271894,"ECCENTRICITY":0.01951326,"INCLINATION":2.4296,"RA_OF_ASC_NODE":299.8346,"ARG_OF_PERICENTER":262.7177,"MEAN_ANOMALY":289.2593,"EPHEMERIS_TYPE":0,"CLASSIFICATION_TYPE":"U","NORAD_CAT_ID":41622,"ELEMENT_SET_NO":999,"REV_AT_EPOCH":3604,"BSTAR":0,"MEAN_MOTION_DOT":-1.66e-6,"MEAN_MOTION_DDOT":0},{"OBJECT_NAME":"TIANTONG-1 1","OBJECT_ID":"2016-048A","EPOCH":"2026-03-05T00:47:11.291712","MEAN_MOTION":1.00272109,"ECCENTRICITY":0.00056903,"INCLINATION":3.6516,"RA_OF_ASC_NODE":42.4406,"ARG_OF_PERICENTER":355.0272,"MEAN_ANOMALY":238.5163,"EPHEMERIS_TYPE":0,"CLASSIFICATION_TYPE":"U","NORAD_CAT_ID":41725,"ELEMENT_SET_NO":999,"REV_AT_EPOCH":3522,"BSTAR":0,"MEAN_MOTION_DOT":-3.25e-6,"MEAN_MOTION_DDOT":0},{"OBJECT_NAME":"JCSAT-16","OBJECT_ID":"2016-050A","EPOCH":"2026-03-05T06:07:25.585536","MEAN_MOTION":1.00271134,"ECCENTRICITY":0.00011212,"INCLINATION":0.0126,"RA_OF_ASC_NODE":134.2703,"ARG_OF_PERICENTER":221.2786,"MEAN_ANOMALY":43.2299,"EPHEMERIS_TYPE":0,"CLASSIFICATION_TYPE":"U","NORAD_CAT_ID":41729,"ELEMENT_SET_NO":999,"REV_AT_EPOCH":3502,"BSTAR":0,"MEAN_MOTION_DOT":-2.6e-6,"MEAN_MOTION_DDOT":0},{"OBJECT_NAME":"USA 270","OBJECT_ID":"2016-052A","EPOCH":"2026-02-20T16:59:52.340352","MEAN_MOTION":1.00327485,"ECCENTRICITY":0.0003302,"INCLINATION":3.8986,"RA_OF_ASC_NODE":78.691,"ARG_OF_PERICENTER":288.5278,"MEAN_ANOMALY":204.8551,"EPHEMERIS_TYPE":0,"CLASSIFICATION_TYPE":"U","NORAD_CAT_ID":41744,"ELEMENT_SET_NO":999,"REV_AT_EPOCH":2696,"BSTAR":0,"MEAN_MOTION_DOT":-3.6e-7,"MEAN_MOTION_DDOT":0},{"OBJECT_NAME":"USA 271","OBJECT_ID":"2016-052B","EPOCH":"2026-02-20T19:31:41.902752","MEAN_MOTION":1.00119522,"ECCENTRICITY":0.0001639,"INCLINATION":3.8712,"RA_OF_ASC_NODE":78.7558,"ARG_OF_PERICENTER":331.9763,"MEAN_ANOMALY":161.1961,"EPHEMERIS_TYPE":0,"CLASSIFICATION_TYPE":"U","NORAD_CAT_ID":41745,"ELEMENT_SET_NO":999,"REV_AT_EPOCH":2675,"BSTAR":0,"MEAN_MOTION_DOT":-3.46e-6,"MEAN_MOTION_DDOT":0},{"OBJECT_NAME":"INTELSAT 36 (IS-36)","OBJECT_ID":"2016-053A","EPOCH":"2026-03-05T05:47:38.745024","MEAN_MOTION":1.00270816,"ECCENTRICITY":0.00011997,"INCLINATION":0.0155,"RA_OF_ASC_NODE":86.6285,"ARG_OF_PERICENTER":239.7885,"MEAN_ANOMALY":351.9528,"EPHEMERIS_TYPE":0,"CLASSIFICATION_TYPE":"U","NORAD_CAT_ID":41747,"ELEMENT_SET_NO":999,"REV_AT_EPOCH":3491,"BSTAR":0,"MEAN_MOTION_DOT":-3.2e-7,"MEAN_MOTION_DDOT":0},{"OBJECT_NAME":"INSAT-3DR","OBJECT_ID":"2016-054A","EPOCH":"2026-03-05T01:31:11.726688","MEAN_MOTION":1.00272506,"ECCENTRICITY":0.0013197,"INCLINATION":0.0489,"RA_OF_ASC_NODE":96.2317,"ARG_OF_PERICENTER":185.6547,"MEAN_ANOMALY":337.6931,"EPHEMERIS_TYPE":0,"CLASSIFICATION_TYPE":"U","NORAD_CAT_ID":41752,"ELEMENT_SET_NO":999,"REV_AT_EPOCH":3477,"BSTAR":0,"MEAN_MOTION_DOT":-8.6e-7,"MEAN_MOTION_DDOT":0}]
